[{"OBJECT_NAME":"CENTAURI-8","OBJECT_ID":"2025-009DK","EPOCH":"2026-03-09T17:25:58.526112","MEAN_MOTION":14.9722833,"ECCENTRICITY":0.00030201,"INCLINATION":97.7096,"RA_OF_ASC_NODE":150.1876,"ARG_OF_PERICENTER":109.5881,"MEAN_ANOMALY":250.5667,"EPHEMERIS_TYPE":0,"CLASSIFICATION_TYPE":"U","NORAD_CAT_ID":62714,"ELEMENT_SET_NO":999,"REV_AT_EPOCH":6259,"BSTAR":0.00038891127,"MEAN_MOTION_DOT":4.445e-5,"MEAN_MOTION_DDOT":0},{"OBJECT_NAME":"STARLINK-34560","OBJECT_ID":"2025-142E","EPOCH":"2026-03-09T22:00:01.999584","MEAN_MOTION":14.98327654,"ECCENTRICITY":0.00031957,"INCLINATION":70.0006,"RA_OF_ASC_NODE":314.0372,"ARG_OF_PERICENTER":276.5089,"MEAN_ANOMALY":320.4654,"EPHEMERIS_TYPE":0,"CLASSIFICATION_TYPE":"U","NORAD_CAT_ID":64700,"ELEMENT_SET_NO":999,"REV_AT_EPOCH":575,"BSTAR":-0.00073575436,"MEAN_MOTION_DOT":-8.86e-5,"MEAN_MOTION_DDOT":0}]
